satname,norad_id,inclination_deg,eccentricity,mean_motion_rev_per_day,perigee_km,apogee_km,l1,l2
STARLINK-1404,45686,53.1586,0.0002828,15.39222887,446.4754995773137,450.33659232410355,1 45686U 20035AF  26109.58400632  .00035146  00000+0  89609-3 0  9998,2 45686  53.1586 218.3456 0002828 357.3598   2.7391 15.39222887325254
STARLINK-1413,45689,53.1571,0.0001561,15.30952511,471.89966993391135,474.03858526694876,1 45689U 20035AJ  26109.58604800  .00028922  00000+0  96221-3 0  9996,2 45689  53.1571 219.5841 0001561  39.4653 320.6462 15.30952511325150
STARLINK-1417,45693,53.0505,0.0004227,15.14557752,519.4046900043832,525.2383376319658,1 45693U 20035AN  26109.60288589  .00015692  00000+0  85538-3 0  9995,2 45693  53.0505 228.5712 0004227   1.2429 358.8573 15.14557752325097
STARLINK-1420,45695,53.047,0.0006456,15.62011177,377.484027725297,386.2125207113668,1 45695U 20035AQ  26109.92740113  .00088057  00000+0  98434-3 0  9992,2 45695  53.0470 182.1797 0006456 331.7956  28.2707 15.62011177325782
STARLINK-1422,45696,53.1556,0.0001844,15.31138829,471.1500861898885,473.6765691507326,1 45696U 20035AR  26109.59205391  .00020557  00000+0  68417-3 0  9999,2 45696  53.1556 219.5401 0001844  14.3714 345.7339 15.31138829325236
STARLINK-1351,45697,53.0468,0.00069,15.59426129,384.64731694283546,393.9864032697824,1 45697U 20035AS  26109.49901592  .00047414  00000+0  59105-3 0  9990,2 45697  53.0468 183.9597 0006900 333.1856  26.8799 15.59426129325729
STARLINK-1400,45700,53.0447,0.0005552,15.58053283,389.5321128077012,397.05110713621434,1 45700U 20035AV  26109.90271659  .00061504  00000+0  80433-3 0  9999,2 45700  53.0447 183.8889 0005552 297.8672  62.1776 15.58053283325755
STARLINK-1403,45701,53.1549,0.0001525,15.30115386,474.4225484935896,476.5128979341707,1 45701U 20035AW  26109.91670139 -.00002949  00000+0 -87712-4 0  9995,2 45701  53.1549 205.2168 0001525  29.3006  76.2023 15.30115386  5865
STARLINK-1407,45703,53.0292,0.0002969,15.66575889,366.7071864216996,370.71346436351723,1 45703U 20035AY  26108.19075619  .00038472  00000+0  36451-3 0  9999,2 45703  53.0292 122.1337 0002969 288.7847  71.2845 15.66575889326470
STARLINK-1411,45706,53.0378,0.0006043,15.71729827,349.8847674690114,358.02117140607334,1 45706U 20035BB  26109.51662704  .00136121  00000+0  10193-2 0  9990,2 45706  53.0378 140.4919 0006043  11.9523 348.1636 15.71729827326328
STARLINK-1423,45710,53.0452,0.0007457,15.64225179,370.4318898200927,380.5042163962971,1 45710U 20035BF  26109.91670139  .00008239  00000+0  90413-4 0  9993,2 45710  53.0452 182.0720 0007457 306.0096 349.1753 15.64225179  5879
STARLINK-1433,45711,53.0437,0.0006982,15.63173001,373.78081617898806,383.2157817104335,1 45711U 20035BG  26109.89943497  .00072662  00000+0  77866-3 0  9998,2 45711  53.0437 180.5942 0006982 313.4645  46.5787 15.63173001325792
STARLINK-1434,45712,53.0515,0.0003105,15.30527099,472.11092209050366,476.36624732860855,1 45712U 20035BH  26109.49539928  .00024522  00000+0  82883-3 0  9992,2 45712  53.0515 190.4593 0003105 299.5855  60.4835 15.30527099325639
STARLINK-1465,45731,53.0527,0.0005679,15.56469654,394.03578617663607,401.7319907017254,1 45731U 20038B   26109.50214116  .00055627  00000+0  77291-3 0  9994,2 45731  53.0527  26.3471 0005679  88.2189 271.9472 15.56469654322729
STARLINK-1471,45735,53.045,0.0001911,15.51091628,412.23974483055645,414.83552287561633,1 45735U 20038F   26109.26685477  .00021858  00000+0  37562-3 0  9999,2 45735  53.0450 307.2821 0001911  63.2287 296.8917 15.51091628323824
STARLINK-1480,45741,53.0527,0.0002872,15.58354997,390.47306505697907,394.3620716010273,1 45741U 20038M   26109.05914784  .00036727  00000+0  47920-3 0  9999,2 45741  53.0527  22.4282 0002872 150.5761 209.5413 15.58354997322758
STARLINK-1500,45744,53.0371,0.000344,15.36958337,452.7592360796698,457.4605099282953,1 45744U 20038Q   26109.93182009  .00019499  00000+0  54077-3 0  9994,2 45744  53.0371 358.9500 0003440  66.3074 293.8289 15.36958337323157
STARLINK-1504,45746,53.0242,9.48e-05,15.55952055,398.74402500005453,400.0290434621447,1 45746U 20038S   26109.95897049  .00028162  00000+0  40384-3 0  9998,2 45746  53.0242 302.6466 0000948  44.2007 315.9079 15.55952055323935
STARLINK-1506,45747,53.0803,0.000424,15.2742164,480.6139798405384,486.4326677951358,1 45747U 20038T   26109.44363435  .00039214  00000+0  14467-2 0  9992,2 45747  53.0803  13.6975 0004240  46.8265 313.3087 15.27421640322914
STARLINK-1464,45751,53.0506,0.0003383,15.490488,417.20775121935185,421.80703741654634,1 45751U 20038X   26109.92958953  .00041644  00000+0  75956-3 0  9996,2 45751  53.0506   7.7993 0003383  97.9468 262.1924 15.49048800323034
STARLINK-1477,45754,53.0523,0.0003466,15.16453206,514.1805689642451,518.9599800469332,1 45754U 20038AA  26109.91728464  .00014591  00000+0  75526-3 0  9994,2 45754  53.0523  25.2539 0003466  99.4332 260.7053 15.16453206322788
STARLINK-1478,45755,53.0492,0.0003027,15.61975039,379.9062611451136,383.99881935278063,1 45755U 20038AB  26108.96514411  .00068568  00000+0  77124-3 0  9993,2 45755  53.0492   2.0964 0003027  85.5687 274.5672 15.61975039323011
STARLINK-1493,45759,53.0505,0.0004673,15.57170447,392.68525285038504,399.0162217896841,1 45759U 20038AF  26109.93742235  .00058561  00000+0  79230-3 0  9994,2 45759  53.0505   5.4450 0004673 152.8373 207.2884 15.57170447323052
STARLINK-1494,45760,53.0472,0.000359,15.83942516,316.8996295924899,321.70839223832627,1 45760U 20038AG  26109.83819745  .00147430  00000+0  63900-3 0  9997,2 45760  53.0472 305.5402 0003590 157.1429 202.9754 15.83942516323898
STARLINK-1502,45764,53.0489,0.0006502,15.53661016,401.63660882771455,410.4587625930126,1 45764U 20038AL  26109.94160734  .00041826  00000+0  64695-3 0  9994,2 45764  53.0489   7.9676 0006502 138.5085 221.6419 15.53661016323035
STARLINK-1470,45772,53.0466,0.0003135,15.31546693,469.04976731649094,473.34429975551757,1 45772U 20038AU  26109.83214895  .00022671  00000+0  74354-3 0  9999,2 45772  53.0466 342.8173 0003135 144.7253 215.3955 15.31546693323378
STARLINK-1482,45773,53.1594,0.0003346,15.33632532,462.6955593322864,467.27497675405994,1 45773U 20038AV  26109.39446095  .00026125  00000+0  80072-3 0  9992,2 45773  53.1594   1.4853 0003346 139.8772 220.2478 15.33632532323083
STARLINK-1496,45780,53.0504,8.85e-05,15.55227692,400.89084051567806,402.0908346429296,1 45780U 20038BC  26109.92499726  .00056603  00000+0  82353-3 0  9996,2 45780  53.0504 339.4147 0000885 275.1876  84.9033 15.55227692323415
STARLINK-1513,45786,53.1603,0.0001206,15.31694809,469.92949293842594,471.5814458020386,1 45786U 20038BJ  26109.96473601 -.00000402  00000+0 -11819-5 0  9999,2 45786  53.1603 359.3832 0001206  80.2228 279.8909 15.31694809323169
STARLINK-1522,46027,53.0615,0.0001833,15.10994896,531.8977215669138,534.4314047199614,1 46027U 20055A   26109.78294996  .00014805  00000+0  89216-3 0  9999,2 46027  53.0615 300.9982 0001833 173.7824 186.3190 15.10994896315097
STARLINK-1523,46028,53.1617,0.0001411,15.30188202,474.2832833995426,476.21730929457135,1 46028U 20055B   26109.80120410  .00000142  00000+0  16924-4 0  9998,2 46028  53.1617 295.7410 0001411  74.2753 285.8403 15.30188202315197
STARLINK-1526,46029,53.1627,0.0001319,15.3018933,474.3429669610259,476.15088964131155,1 46029U 20055C   26109.72956817  .00000330  00000+0  23278-4 0  9997,2 46029  53.1627 296.0846 0001319  82.8875 277.2276 15.30189330315177
STARLINK-1555,46032,53.1581,0.0001339,15.30182967,474.34825670689133,476.183598010839,1 46032U 20055F   26109.84439568 -.00000380  00000+0 -70137-6 0  9998,2 46032  53.1581 295.5356 0001339  92.4829 267.6325 15.30182967315197
STARLINK-1556,46033,53.1591,0.0001241,15.30182986,474.4153633309934,476.116377923483,1 46033U 20055G   26109.89285863 -.00001265  00000+0 -30594-4 0  9995,2 46033  53.1591 295.3237 0001241 105.5687 254.5451 15.30182986315179
STARLINK-1557,46034,53.1565,0.0001539,15.29357402,476.6769519331019,478.78718843290335,1 46034U 20055H   26109.82446497 -.00003046  00000+0 -93266-4 0  9995,2 46034  53.1565 295.5764 0001539  83.2386 276.8789 15.29357402315161
STARLINK-1558,46035,53.1615,0.0001268,15.30186205,474.387248846946,476.1252693774577,1 46035U 20055J   26109.83807461 -.00000019  00000+0  11505-4 0  9991,2 46035  53.1615 295.5769 0001268  95.1636 264.9509 15.30186205315196
STARLINK-1560,46036,53.158,9.73e-05,15.29352243,477.0804106568776,478.41456577828467,1 46036U 20055K   26109.23309272  .00001577  00000+0  66959-4 0  9995,2 46036  53.1580 298.3592 0000973  91.0444 269.0668 15.29352243315105
STARLINK-1567,46038,53.0841,5.5e-06,15.91745196,297.3622916941249,297.435722590204,1 46038U 20055M   26110.00003472  .00588287  14753-3  17662-2 0  9994,2 46038  53.0841 286.0749 0000055   8.1911  86.6968 15.91745196  2294
STARLINK-1569,46039,53.1572,0.0001404,15.30185535,474.296042947768,476.22047633667535,1 46039U 20055N   26109.77592043 -.00000082  00000+0  93514-5 0  9996,2 46039  53.1572 295.8593 0001404  77.1868 282.9290 15.30185535315179
STARLINK-1582,46043,53.1603,0.0001225,15.31688505,469.93526980726983,471.6132530663226,1 46043U 20055S   26109.84151359 -.00000507  00000+0 -45745-5 0  9996,2 46043  53.1603 295.4837 0001225  89.6384 270.4758 15.31688505315186
STARLINK-1591,46045,53.1583,9.5e-05,15.30189485,474.5953940645468,475.8975369229902,1 46045U 20055U   26109.93920627 -.00000727  00000+0 -12421-4 0  9998,2 46045  53.1583 295.1050 0000950  71.7392 288.3712 15.30189485315184
STARLINK-1524,46047,53.1612,0.0001402,15.30178804,474.3175087521331,476.2392064183996,1 46047U 20055W   26109.80274513  .00000107  00000+0  15761-4 0  9992,2 46047  53.1612 282.8718 0001402 103.7766 256.3391 15.30178804315368
STARLINK-1527,46048,53.1608,0.0001017,15.31691749,470.06805784589324,471.4611244295311,1 46048U 20055X   26110.00003472  .00028274  00000+0  91967-3 0  9997,2 46048  53.1608 282.0242 0001017  70.8949 278.7877 15.31691749  5763
